[{"OBJECT_NAME":"YAM-7","OBJECT_ID":"2024-149AN","EPOCH":"2026-03-09T17:13:55.117920","MEAN_MOTION":15.30304554,"ECCENTRICITY":0.00019733,"INCLINATION":97.3828,"RA_OF_ASC_NODE":149.4631,"ARG_OF_PERICENTER":296.5121,"MEAN_ANOMALY":63.5918,"EPHEMERIS_TYPE":0,"CLASSIFICATION_TYPE":"U","NORAD_CAT_ID":60504,"ELEMENT_SET_NO":999,"REV_AT_EPOCH":8683,"BSTAR":0.00030984439,"MEAN_MOTION_DOT":9.009e-5,"MEAN_MOTION_DDOT":0},{"OBJECT_NAME":"STARLINK-35816","OBJECT_ID":"2025-263Q","EPOCH":"2026-03-09T03:45:59.379264","MEAN_MOTION":15.27576912,"ECCENTRICITY":0.00017652,"INCLINATION":43.003,"RA_OF_ASC_NODE":354.0351,"ARG_OF_PERICENTER":277.2488,"MEAN_ANOMALY":82.8163,"EPHEMERIS_TYPE":0,"CLASSIFICATION_TYPE":"U","NORAD_CAT_ID":66499,"ELEMENT_SET_NO":999,"REV_AT_EPOCH":1881,"BSTAR":0.0013877577,"MEAN_MOTION_DOT":0.0003812,"MEAN_MOTION_DDOT":0}]
